[{"OBJECT_NAME":"STARLINK-11413 [DTC]","OBJECT_ID":"2025-008G","EPOCH":"2026-03-09T04:44:16.860768","MEAN_MOTION":15.70989024,"ECCENTRICITY":0.0001448,"INCLINATION":42.9991,"RA_OF_ASC_NODE":129.4143,"ARG_OF_PERICENTER":217.4814,"MEAN_ANOMALY":142.5952,"EPHEMERIS_TYPE":0,"CLASSIFICATION_TYPE":"U","NORAD_CAT_ID":62593,"ELEMENT_SET_NO":999,"REV_AT_EPOCH":6710,"BSTAR":0.0018277239,"MEAN_MOTION_DOT":0.0024256,"MEAN_MOTION_DDOT":0},{"OBJECT_NAME":"FREGAT DEB","OBJECT_ID":"2011-037BP","EPOCH":"2026-03-09T06:46:06.972096","MEAN_MOTION":12.80481599,"ECCENTRICITY":0.12781698,"INCLINATION":51.4136,"RA_OF_ASC_NODE":170.397,"ARG_OF_PERICENTER":239.8148,"MEAN_ANOMALY":107.0118,"EPHEMERIS_TYPE":0,"CLASSIFICATION_TYPE":"U","NORAD_CAT_ID":45829,"ELEMENT_SET_NO":999,"REV_AT_EPOCH":25015,"BSTAR":0.0043609848,"MEAN_MOTION_DOT":0.00065096,"MEAN_MOTION_DDOT":0}]
